NORAD_CAT_ID,OBJECT_NAME,OBJECT_TYPE,EPOCH,MEAN_MOTION,ECCENTRICITY,INCLINATION,RA_OF_ASC_NODE,ARG_OF_PERICENTER,MEAN_ANOMALY,BSTAR,MEAN_MOTION_DOT,MEAN_MOTION_DDOT,TLE_LINE0,TLE_LINE1,TLE_LINE2,SEMIMAJOR_AXIS,PERIOD,APOGEE,PERIGEE,DECAYED
52292.0,STARLINK-3753,PAYLOAD,2022-04-25 18:00:00,15.82033159,0.0001305,53.2178,354.8269,55.5977,158.7915,-0.0046545,-0.00877528,0.0,0 STARLINK-3753,1 52292U 22041AH  22115.75001157 -.00877528  00000-0 -46545-2 0  9991,2 52292  53.2178 354.8269 0001305  55.5977 158.7915 15.82033159  1871,6702.829000000002,91.022,325.568,323.819,0.0
52292.0,STARLINK-3753,PAYLOAD,2022-04-26 14:00:01,15.80459213,0.000113,53.2173,350.6528,66.6747,214.2542,-0.0050028999999999,-0.008764,0.0,0 STARLINK-3753,1 52292U 22041AH  22116.58335648 -.00876400  00000-0 -50029-2 0  9998,2 52292  53.2173 350.6528 0001130  66.6747 214.2542 15.80459213  2003,6707.278,91.113,329.901,328.385,0.0
52292.0,STARLINK-3753,PAYLOAD,2022-04-26 22:00:00,15.79831896,0.0001006,53.2175,348.9884,69.9413,308.1855,-0.0051677,-0.00879083,0.0,0 STARLINK-3753,1 52292U 22041AH  22116.91667824 -.00879083  00000-0 -51677-2 0  9999,2 52292  53.2175 348.9884 0001006  69.9413 308.1855 15.79831896  1477,6709.054,91.149,331.593,330.244,0.0
52292.0,STARLINK-3753,PAYLOAD,2022-04-27 12:00:00,15.78727922,0.0001136,53.2173,346.0737,56.6841,39.8407,-0.0054046,-0.00874567,0.0,0 STARLINK-3753,1 52292U 22041AH  22117.50001157 -.00874567  00000-0 -54046-2 0  9991,2 52292  53.2173 346.0737 0001136  56.6841  39.8407 15.78727922  2142,6712.181,91.213,334.80800000000005,333.283,0.0
52292.0,STARLINK-3753,PAYLOAD,2022-04-27 14:00:01,15.78572277,0.0001243,53.2174,345.6578,65.7511,144.7062,-0.0054584,-0.00876836,0.0,0 STARLINK-3753,1 52292U 22041AH  22117.58335648 -.00876836  00000-0 -54584-2 0  9992,2 52292  53.2174 345.6578 0001243  65.7511 144.7062 15.78572277  1575,6712.621999999999,91.222,335.321,333.653,0.0
52292.0,STARLINK-3753,PAYLOAD,2022-04-28 04:00:01,15.77471907,0.0001059,53.2172,342.7525,75.8573,210.3471,-0.0057394,-0.00877107,0.0,0 STARLINK-3753,1 52292U 22041AH  22118.16668981 -.00877107  00000-0 -57394-2 0  9990,2 52292  53.2172 342.7525 0001059  75.8573 210.3471 15.77471907  2255,6715.743,91.285,338.319,336.897,0.0
52292.0,STARLINK-3753,PAYLOAD,2022-04-28 14:00:01,15.76684071,0.0001249,53.2175,340.6767,57.6413,75.4734,-0.0059323,-0.00875376,0.0,0 STARLINK-3753,1 52292U 22041AH  22118.58334491 -.00875376  00000-0 -59323-2 0  9992,2 52292  53.2175 340.6767 0001249  57.6413  75.4734 15.76684071  1736,6717.98,91.331,340.684,339.006,0.0
52292.0,STARLINK-3753,PAYLOAD,2022-04-29 04:00:00,15.75583573,0.0001215,53.2172,337.7793,67.7155,137.1768,-0.0062424,-0.00877,0.0,0 STARLINK-3753,1 52292U 22041AH  22119.16667824 -.00877000  00000-0 -62424-2 0  9998,2 52292  53.2172 337.7793 0001215  67.7155 137.1768 15.75583573  2410,6721.108,91.395,343.79,342.156,0.0
52292.0,STARLINK-3753,PAYLOAD,2022-04-29 14:00:01,15.74692332,0.0001109,53.2162,335.7093,54.5911,354.4941,-0.0053739,-0.00738193,0.0,0 STARLINK-3753,1 52292U 22041AH  22119.58334491 -.00738193  00000-0 -53739-2 0  9993,2 52292  53.2162 335.7093 0001109  54.5911 354.4941 15.74692332  1897,6723.644,91.446,346.254,344.76300000000015,0.0
52292.0,STARLINK-3753,PAYLOAD,2022-04-29 22:00:00,15.74167897,0.0001431,53.2173,334.0591,48.1432,91.3473,-0.0066468999999999,-0.00877575,0.0,0 STARLINK-3753,1 52292U 22041AH  22119.91667824 -.00877575  00000-0 -66469-2 0  9991,2 52292  53.2173 334.0591 0001431  48.1432  91.3473 15.74167897  1945,6725.137,91.477,347.964,346.04,0.0
52292.0,STARLINK-3753,PAYLOAD,2022-04-30 06:00:00,15.73352931,0.0001228,53.2173,332.4069,69.592,159.6308,-0.0016396,-0.00226125,0.0,0 STARLINK-3753,1 52292U 22041AH  22120.25001157 -.00226125  00000-0 -16396-2 0  9994,2 52292  53.2173 332.4069 0001228  69.5920 159.6308 15.73352931  2580,6727.459,91.524,350.15,348.49800000000016,0.0
52292.0,STARLINK-3753,PAYLOAD,2022-04-30 12:00:00,15.73205663,0.0001252999999999,53.2172,331.1682,61.278,144.7224,-1.9078e-05,-3.297e-05,0.0,0 STARLINK-3753,1 52292U 22041AH  22120.50001157 -.00003297  00000-0 -19078-4 0  9997,2 52292  53.2172 331.1682 0001253  61.2780 144.7224 15.73205663  2623,6727.879,91.533,350.587,348.901,0.0
52292.0,STARLINK-3753,PAYLOAD,2022-04-30 14:00:01,15.7320488,0.0001225,53.2176,330.756,64.1533,254.0806,1.0558e-06,-4.72e-06,0.0,0 STARLINK-3753,1 52292U 22041AH  22120.58334491 -.00000472  00000-0  10558-5 0  9991,2 52292  53.2176 330.7560 0001225  64.1533 254.0806 15.73204880  2052,6727.880999999999,91.533,350.57,348.922,0.0
52292.0,STARLINK-3753,PAYLOAD,2022-04-30 20:00:01,15.73329122,0.0001177,53.2128,329.5182,54.5417,240.5528,-0.00089849,-0.00125542,0.0,0 STARLINK-3753,1 52292U 22041AH  22120.83334491 -.00125542  00000-0 -89849-3 0  9993,2 52292  53.2128 329.5182 0001177  54.5417 240.5528 15.73329122  2671,6727.526999999999,91.526,350.184,348.6,0.0
52292.0,STARLINK-3753,PAYLOAD,2022-04-30 22:00:00,15.73311073,0.0001218,53.2137,329.1066,48.858,358.5021,-0.00090462,-0.00126287,0.0,0 STARLINK-3753,1 52292U 22041AH  22120.91667824 -.00126287  00000-0 -90462-3 0  9991,2 52292  53.2137 329.1066 0001218  48.8580 358.5021 15.73311073  2103,6727.579000000002,91.527,350.26300000000015,348.624,0.0
52292.0,STARLINK-3753,PAYLOAD,2022-05-01 12:00:00,15.73205048,0.0001240999999999,53.2144,326.2168,65.0196,48.0271,-0.00033045,-0.00046749,0.0,0 STARLINK-3753,1 52292U 22041AH  22121.50001157 -.00046749  00000-0 -33045-3 0  9996,2 52292  53.2144 326.2168 0001241  65.0196  48.0271 15.73205048  2777,6727.880999999999,91.533,350.581,348.911,0.0
52292.0,STARLINK-3753,PAYLOAD,2022-05-01 14:00:01,15.73207142,0.0001264,53.2147,325.8047,67.0175,158.2573,-0.00042756,-0.00060215,0.0,0 STARLINK-3753,1 52292U 22041AH  22121.58334491 -.00060215  00000-0 -42756-3 0  9997,2 52292  53.2147 325.8047 0001264  67.0175 158.2573 15.73207142  2210,6727.875,91.533,350.59,348.889,0.0
52292.0,STARLINK-3753,PAYLOAD,2022-05-01 22:00:01,15.73136416,0.0001406999999999,53.2147,324.1572,56.0945,258.1656,-2.9098e-05,-4.69e-05,0.0,0 STARLINK-3753,1 52292U 22041AH  22121.91668981 -.00004690  00000-0 -29098-4 0  9998,2 52292  53.2147 324.1572 0001407  56.0945 258.1656 15.73136416  2269,6728.076,91.537,350.88800000000015,348.995,0.0
52292.0,STARLINK-3753,PAYLOAD,2022-05-02 14:00:01,15.73173433,0.0001171,53.215,320.8561,62.1158,69.7612,0.00034362,0.00047825,0.0,0 STARLINK-3753,1 52292U 22041AH  22122.58334491  .00047825  00000-0  34362-3 0  9992,2 52292  53.2150 320.8561 0001171  62.1158  69.7612 15.73173433  2949,6727.971,91.535,350.624,349.048,0.0
52292.0,STARLINK-3753,PAYLOAD,2022-05-02 22:00:01,15.73184187,0.0001245,53.2151,319.2085,41.6305,179.2551,8.3828e-05,0.00011153,0.0,0 STARLINK-3753,1 52292U 22041AH  22122.91668981  .00011153  00000-0  83828-4 0  9990,2 52292  53.2151 319.2085 0001245  41.6305 179.2551 15.73184187  2421,6727.94,91.534,350.64300000000014,348.968,0.0
52292.0,STARLINK-3753,PAYLOAD,2022-05-03 04:00:00,15.73204457,0.000109,53.2146,317.9704,36.8571,160.6483,0.00012245,0.00016602,0.0,0 STARLINK-3753,1 52292U 22041AH  22123.16667824  .00016602  00000-0  12245-3 0  9991,2 52292  53.2146 317.9704 0001090  36.8571 160.6483 15.73204457  3036,6727.882,91.533,350.481,349.014,0.0
52292.0,STARLINK-3753,PAYLOAD,2022-05-03 14:00:01,15.73271296,0.0001088,53.2149,315.9075,47.7035,350.9633,-0.00038549,-0.00054535,0.0,0 STARLINK-3753,1 52292U 22041AH  22123.58334491 -.00054535  00000-0 -38549-3 0  9992,2 52292  53.2149 315.9075 0001088  47.7035 350.9633 15.73271296  2520,6727.691999999999,91.529,350.289,348.825,0.0
52292.0,STARLINK-3753,PAYLOAD,2022-05-03 22:00:00,15.73219803,0.0001406999999999,53.2147,314.2598,43.558,84.1206,-0.00017553,-0.00025202,0.0,0 STARLINK-3753,1 52292U 22041AH  22123.91667824 -.00025202  00000-0 -17553-3 0  9999,2 52292  53.2147 314.2598 0001407  43.5580  84.1206 15.73219803  2588,6727.839,91.532,350.65,348.75699999999995,0.0
52292.0,STARLINK-3753,PAYLOAD,2022-05-04 12:00:00,15.73339746,0.0001408,53.2158,311.3709,65.0445,128.2697,-0.0021461,-0.00293309,0.0,0 STARLINK-3753,1 52292U 22041AH  22124.50001157 -.00293309  00000-0 -21461-2 0  9993,2 52292  53.2158 311.3709 0001408  65.0445 128.2697 15.73339746  3249,6727.496999999999,91.525,350.309,348.415,0.0
52292.0,STARLINK-3753,PAYLOAD,2022-05-04 14:00:01,15.73376552,0.0001354,53.2162,310.9591,60.176,245.3769,-0.0035352,-0.0047342,0.0,0 STARLINK-3753,1 52292U 22041AH  22124.58334491 -.00473420  00000-0 -35352-2 0  9999,2 52292  53.2162 310.9591 0001354  60.1760 245.3769 15.73376552  2688,6727.392,91.523,350.168,348.346,0.0
52292.0,STARLINK-3753,PAYLOAD,2022-05-04 20:00:01,15.7323014,0.0001676999999999,53.2149,309.7228,49.7496,232.6229,4.2385e-05,5.339e-05,0.0,0 STARLINK-3753,1 52292U 22041AH  22124.83335648  .00005339  00000-0  42385-4 0  9996,2 52292  53.2149 309.7228 0001677  49.7496 232.6229 15.73230140  3305,6727.809,91.531,350.802,348.546,0.0
52292.0,STARLINK-3753,PAYLOAD,2022-05-04 22:00:01,15.73228759,0.0001653,53.2151,309.3107,47.0334,347.5811,8.4571e-05,0.00011279,0.0,0 STARLINK-3753,1 52292U 22041AH  22124.91668981  .00011279  00000-0  84571-4 0  9997,2 52292  53.2151 309.3107 0001653  47.0334 347.5811 15.73228759  2738,6727.813,91.532,350.79,348.566,0.0
52292.0,STARLINK-3753,PAYLOAD,2022-05-05 14:00:01,15.73282455,0.0001474,53.215,306.0099,50.9193,161.546,-0.00068012,-0.00095333,0.0,0 STARLINK-3753,1 52292U 22041AH  22125.58334491 -.00095333  00000-0 -68012-3 0  9993,2 52292  53.2150 306.0099 0001474  50.9193 161.5460 15.73282455  2847,6727.66,91.528,350.517,348.533,0.0
52292.0,STARLINK-3753,PAYLOAD,2022-05-05 20:00:01,15.73222882,0.0001696999999999,53.2147,304.7742,45.0273,144.2445,-0.0005456,-0.00076577,0.0,0 STARLINK-3753,1 52292U 22041AH  22125.83335648 -.00076577  00000-0 -54560-3 0  9998,2 52292  53.2147 304.7742 0001697  45.0273 144.2445 15.73222882  3451,6727.83,91.532,350.837,348.55300000000005,0.0
